CUTE-1 (CO-55)          
1 27844U 03031E   26154.54951729  .00000336  00000+0  16425-3 0  9994
2 27844  98.6736 163.2800 0008690 219.4250 140.6297 14.24327019189732
CUBESAT XI-IV (CO-57)   
1 27848U 03031J   26152.00092913  .00000288  00000+0  14576-3 0  9999
2 27848  98.6768 160.4891 0008288 248.3946 111.6350 14.23611465189071
CUBESAT XI-V            
1 28895U 05043F   26152.36703129  .00001677  00000+0  27161-3 0  9991
2 28895  98.2967 307.6587 0012837 254.1655 105.8136 14.72584583 99425
CUTE-1.7+APD II (CO-65) 
1 32785U 08021C   26155.71935219  .00005395  00000+0  34197-3 0  9990
2 32785  97.8272 136.8804 0010637  75.2124 285.0282 15.09326445983310
CANX-2                  
1 32790U 08021H   26155.72703551  .00004286  00000+0  30188-3 0  9993
2 32790  97.8638 135.2647 0012385  87.4446 272.8198 15.05525197982932
SEEDS II (CO-66)        
1 32791U 08021J   26154.55442507  .00020146  00000+0  64842-3 0  9992
2 32791  97.7515 151.8069 0002991  42.0128 318.1342 15.32257900985206
SWISSCUBE               
1 35932U 09051B   26154.27980436  .00001220  00000+0  25059-3 0  9992
2 35932  98.4045  61.9256 0005398 254.9932 105.0671 14.62453382887126
BEESAT-1                
1 35933U 09051C   26154.62429402  .00000980  00000+0  20663-3 0  9991
2 35933  98.3973  61.9398 0003909 272.0464  88.0289 14.61697093887202
ITUPSAT1                
1 35935U 09051E   26154.26074865  .00000935  00000+0  20304-3 0  9994
2 35935  98.4058  60.7773 0006171 286.3801  73.6720 14.60418625886705
TISAT 1                 
1 36799U 10035E   26154.33049739  .00022924  00000+0  76310-3 0  9997
2 36799  98.0708  99.6565 0000568  17.2069 342.9189 15.31153617865583
AEROCUBE 4.5A           
1 38767U 12048K   26155.08959535  .00309658  40838-4  11920-2 0  9992
2 38767  64.6273  74.5139 0019145 214.1007 145.8922 15.86796703370570
STRAND-1                
1 39090U 13009E   26155.03670315  .00000293  00000+0  11292-3 0  9999
2 39090  98.3918 335.5952 0007387 270.6143  89.4198 14.37155097695170
BRITE-AUSTRIA           
1 39091U 13009F   26155.74043161  .00000204  00000+0  84090-4 0  9990
2 39091  98.3992 335.4846 0008969 278.5862  81.4309 14.36537037695269
NEE-01 PEGASO           
1 39151U 13018B   26154.46520451  .00003190  00000+0  30780-3 0  9990
2 39151  98.1207 298.1637 0012177 203.9081 156.1574 14.93586684708654
POPACS 2                
1 39269U 13055E   26154.35186464  .00012054  00000+0  20633-3 0  9996
2 39269  80.9903 160.0266 0417312 238.2636 117.7281 14.90877898661156
POPACS 3                
1 39270U 13055F   26153.27543211  .00013492  00000+0  31819-3 0  9990
2 39270  81.0022 245.3481 0553506 115.3573 250.5997 14.55806336636386
ZACUBE-1 (TSHEPISOSAT)  
1 39417U 13066B   26154.94254392  .00004510  00000+0  35148-3 0  9999
2 39417  97.8107 117.2078 0039903 294.5657  65.1411 15.01095965678747
WNISAT-1                
1 39423U 13066H   26154.96623857  .00000696  00000+0  13588-3 0  9999
2 39423  97.7188 305.0620 0161676 273.5822  84.6901 14.58041901664800
TRITON-1                
1 39427U 13066M   26155.80216519  .00001469  00000+0  18155-3 0  9994
2 39427  97.8258  65.8914 0088408 275.0041  84.1084 14.81657452672256
GOMX-1                  
1 39430U 13066Q   26155.79272571  .00002314  00000+0  35095-3 0  9998
2 39430  97.6487 357.0374 0130016 116.8977 244.5586 14.69410700668096
CUBEBUG-2 (LO-74)       
1 39440U 13066AA  26154.33051700  .00005093  00000+0  47123-3 0  9999
2 39440  97.8904 103.2522 0059453  73.9566 286.8190 14.93641817674922
NEE-02 KRYSAOR          
1 39441U 13066AB  26153.80498402  .00002076  00000+0  23117-3 0  9990
2 39441  97.8894  93.1239 0067604 116.2445 244.5740 14.86554787674065
FUNCUBE-1 (AO-73)       
1 39444U 13066AE  26155.59353272  .00008112  00000+0  50553-3 0  9997
2 39444  97.8278 126.7780 0034647 245.3456 114.4162 15.09331350677763
UWE-3                   
1 39446U 13066AG  26155.64928529  .00004713  00000+0  40572-3 0  9991
2 39446  97.8702 111.6406 0049326   3.6109 356.5458 14.96922367675703
BRITE-CA1 (TORONTO)     
1 40020U 14033L   26155.26417949  .00000870  00000+0  13835-3 0  9995
2 40020  97.9724 284.4316 0077665 319.0531  40.4860 14.72658739640315
DUCHIFAT-1              
1 40021U 14033M   26155.66830056  .00095076  00000+0  10761-2 0  9994
2 40021  98.0472 213.0954 0004853 139.0185 221.1436 15.62101054653794
NANOSATC-BR1            
1 40024U 14033Q   26155.07054278  .00018591  00000+0  62230-3 0  9992
2 40024  98.0721 186.3011 0003039 201.8474 158.2636 15.31019931651972
QB50P1                  
1 40025U 14033R   26154.57246974  .00009724  00000+0  48090-3 0  9999
2 40025  98.0967 164.7661 0007059 272.3380  87.7044 15.18040602650962
QB50P2                  
1 40032U 14033Y   26155.22138674  .00007558  00000+0  40867-3 0  9994
2 40032  98.0753 151.2965 0006642 207.6654 152.4224 15.14981717650702
PERSEUS-M2              
1 40037U 14033AD  26155.68502515  .00002610  00000+0  24105-3 0  9999
2 40037  97.9973 105.9713 0011632 350.5115   9.5884 14.95475559648915
